NORAD_CAT_ID,OBJECT_NAME,OBJECT_TYPE,EPOCH,MEAN_MOTION,ECCENTRICITY,INCLINATION,RA_OF_ASC_NODE,ARG_OF_PERICENTER,MEAN_ANOMALY,BSTAR,MEAN_MOTION_DOT,MEAN_MOTION_DDOT,TLE_LINE0,TLE_LINE1,TLE_LINE2,SEMIMAJOR_AXIS,PERIOD,APOGEE,PERIGEE,DECAYED
49447.0,STARLINK-3115,PAYLOAD,2021-11-29 14:00:01,15.74924262,0.0001973,53.2176,53.5588,30.3312,157.9857,-0.0059507,-0.0081815,0.0,0 STARLINK-3115,1 49447U 21104AR  21333.58334491 -.00818150  00000-0 -59507-2 0  9998,2 49447  53.2176  53.5588 0001973  30.3312 157.9857 15.74924262  3805,6722.984,91.433,346.175,343.522,0.0
49447.0,STARLINK-3115,PAYLOAD,2021-11-29 22:00:00,15.74269994,0.0001671,53.2175,51.9049,28.8355,250.158,-0.0053818999999999,-0.00726906,0.0,0 STARLINK-3115,1 49447U 21104AR  21333.91667824 -.00726906  00000-0 -53819-2 0  9991,2 49447  53.2175  51.9049 0001671  28.8355 250.1580 15.74269994  3254,6724.846,91.471,347.835,345.588,0.0
49447.0,STARLINK-3115,PAYLOAD,2021-11-30 10:00:00,15.73290767,0.0001865,53.2174,49.4281,30.517,203.1071,-0.00096369,-0.00134263,0.0,0 STARLINK-3115,1 49447U 21104AR  21334.41667824 -.00134263  00000-0 -96369-3 0  9994,2 49447  53.2174  49.4281 0001865  30.5170 203.1071 15.73290767  3336,6727.636,91.528,350.756,348.247,0.0
49447.0,STARLINK-3115,PAYLOAD,2021-11-30 16:00:00,15.7330612,0.0001776,53.2185,48.1944,36.9155,173.5131,-0.00082101,-0.00114811,0.0,0 STARLINK-3115,1 49447U 21104AR  21334.66667824 -.00114811  00000-0 -82101-3 0  9997,2 49447  53.2185  48.1944 0001776  36.9155 173.5131 15.73306120  3972,6727.593000000003,91.527,350.652,348.26300000000015,0.0
49447.0,STARLINK-3115,PAYLOAD,2021-11-30 22:00:00,15.73149945,0.0001864,53.2184,46.9544,29.6404,157.5904,-0.00090345,-0.00125285,0.0,0 STARLINK-3115,1 49447U 21104AR  21334.91667824 -.00125285  00000-0 -90345-3 0  9991,2 49447  53.2184  46.9544 0001864  29.6404 157.5904 15.73149945  3416,6728.038000000001,91.536,351.157,348.649,0.0
49447.0,STARLINK-3115,PAYLOAD,2021-12-01 00:00:00,15.72916375,0.0001781999999999,53.2183,46.5413,36.857,262.6558,0.0024621,0.00355624,0.0,0 STARLINK-3115,1 49447U 21104AR  21335.00001157  .00355624  00000-0  24621-2 0  9996,2 49447  53.2183  46.5413 0001782  36.8570 262.6558 15.72916375  4028,6728.704000000002,91.55,351.76800000000014,349.37,0.0
49447.0,STARLINK-3115,PAYLOAD,2021-12-01 06:00:00,15.73286119,0.0001649,53.219,45.3045,36.4192,239.6839,-0.00065973,-0.0009254,0.0,0 STARLINK-3115,1 49447U 21104AR  21335.25001157 -.00092540  00000-0 -65973-3 0  9996,2 49447  53.2190  45.3045 0001649  36.4192 239.6839 15.73286119  4069,6727.65,91.528,350.624,348.405,0.0
49447.0,STARLINK-3115,PAYLOAD,2021-12-01 14:00:01,15.73233601,0.0001927,53.2197,43.659,29.4794,335.6175,-0.0002935,-0.0004167,0.0,0 STARLINK-3115,1 49447U 21104AR  21335.58334491 -.00041670  00000-0 -29350-3 0  9999,2 49447  53.2197  43.6590 0001927  29.4794 335.6175 15.73233601  3529,6727.799,91.531,350.961,348.36800000000005,0.0
49447.0,STARLINK-3115,PAYLOAD,2021-12-01 22:00:00,15.73215134,0.0001719,53.2194,42.0081,27.2062,66.8554,0.00012848,0.0001746,0.0,0 STARLINK-3115,1 49447U 21104AR  21335.91667824  .00017460  00000-0  12848-3 0  9997,2 49447  53.2194  42.0081 0001719  27.2062  66.8554 15.73215134  4163,6727.852,91.532,350.874,348.561,0.0
49447.0,STARLINK-3115,PAYLOAD,2021-12-02 04:00:00,15.73238267,0.0001634,53.2195,40.7704,30.9524,39.8228,0.00018486,0.00025445,0.0,0 STARLINK-3115,1 49447U 21104AR  21336.16667824  .00025445  00000-0  18486-3 0  9991,2 49447  53.2195  40.7704 0001634  30.9524  39.8228 15.73238267  4206,6727.786,91.531,350.75,348.552,0.0
49447.0,STARLINK-3115,PAYLOAD,2021-12-03 10:00:00,15.73181352,0.000198,53.2197,34.587,26.8684,287.4188,-0.00038656,-0.00054483,0.0,0 STARLINK-3115,1 49447U 21104AR  21337.41667824 -.00054483  00000-0 -38656-3 0  9997,2 49447  53.2197  34.5870 0001980  26.8684 287.4188 15.73181352  4408,6727.948,91.534,351.145,348.481,0.0
49447.0,STARLINK-3115,PAYLOAD,2021-12-03 22:00:00,15.73153321,0.0001861,53.2195,32.1121,25.6585,241.9391,0.00015584,0.00021263,0.0,0 STARLINK-3115,1 49447U 21104AR  21337.91667824  .00021263  00000-0  15584-3 0  9995,2 49447  53.2195  32.1121 0001861  25.6585 241.9391 15.73153321  3713,6728.028,91.536,351.145,348.641,0.0
49447.0,STARLINK-3115,PAYLOAD,2021-12-04 00:00:02,15.73138571,0.0001796,53.2193,31.6992,26.6356,353.2566,0.00050604,0.00070814,0.0,0 STARLINK-3115,1 49447U 21104AR  21338.00002315  .00070814  00000-0  50604-3 0  9992,2 49447  53.2193  31.6992 0001796  26.6356 353.2566 15.73138571  4492,6728.07,91.537,351.144,348.727,0.0
49447.0,STARLINK-3115,PAYLOAD,2021-12-04 06:00:00,15.73197393,0.0001856,53.2195,30.463,27.6896,328.7884,5.411399999999999e-07,-5.45e-06,0.0,0 STARLINK-3115,1 49447U 21104AR  21338.25001157 -.00000545  00000-0  54114-6 0  9990,2 49447  53.2195  30.4630 0001856  27.6896 328.7884 15.73197393  3763,6727.903,91.533,351.016,348.519,0.0
49447.0,STARLINK-3115,PAYLOAD,2021-12-04 10:00:00,15.7319688,0.0002036,53.2194,29.6394,26.4558,194.4898,8.5878e-05,0.00011447,0.0,0 STARLINK-3115,1 49447U 21104AR  21338.41667824  .00011447  00000-0  85878-4 0  9998,2 49447  53.2194  29.6394 0002036  26.4558 194.4898 15.73196880  4564,6727.904,91.533,351.139,348.399,0.0
49447.0,STARLINK-3115,PAYLOAD,2021-12-04 22:00:00,15.73213409,0.0001974,53.2198,27.1638,27.3888,146.9639,0.00025154,0.00034849,0.0,0 STARLINK-3115,1 49447U 21104AR  21338.91667824  .00034849  00000-0  25154-3 0  9994,2 49447  53.2198  27.1638 0001974  27.3888 146.9639 15.73213409  3705,6727.857,91.532,351.05,348.394,0.0
49447.0,STARLINK-3115,PAYLOAD,2021-12-05 14:00:01,15.73174319,0.0002447,53.2194,23.8667,32.8634,319.4186,0.00049719,0.00069666,0.0,0 STARLINK-3115,1 49447U 21104AR  21339.58334491  .00069666  00000-0  49719-3 0  9997,2 49447  53.2194  23.8667 0002447  32.8634 319.4186 15.73174319  4747,6727.968000000003,91.535,351.48,348.18699999999984,0.0
49447.0,STARLINK-3115,PAYLOAD,2021-12-05 22:00:00,15.73198614,0.0002192,53.2193,22.2153,36.224,44.9903,0.00034021,0.00047395,0.0,0 STARLINK-3115,1 49447U 21104AR  21339.91667824  .00047395  00000-0  34021-3 0  9998,2 49447  53.2193  22.2153 0002192  36.2240  44.9903 15.73198614  3714,6727.899,91.533,351.23900000000015,348.289,0.0
49447.0,STARLINK-3115,PAYLOAD,2021-12-06 06:00:00,15.73262925,0.0002233,53.2193,20.5663,36.8159,133.3337,-0.0003657,-0.00051774,0.0,0 STARLINK-3115,1 49447U 21104AR  21340.25001157 -.00051774  00000-0 -36570-3 0  9997,2 49447  53.2193  20.5663 0002233  36.8159 133.3337 15.73262925  4859,6727.715999999999,91.53,351.083,348.07800000000015,0.0
49447.0,STARLINK-3115,PAYLOAD,2021-12-06 14:00:01,15.73188784,0.0002375,53.2192,18.9181,30.0412,229.17,0.00028933,0.00040163,0.0,0 STARLINK-3115,1 49447U 21104AR  21340.58335648  .00040163  00000-0  28933-3 0  9990,2 49447  53.2192  18.9181 0002375  30.0412 229.1700 15.73188784  3744,6727.927,91.534,351.39,348.194,0.0
49447.0,STARLINK-3115,PAYLOAD,2021-12-06 22:00:00,15.73188833,0.000215,53.2196,17.2665,31.8935,316.1818,0.00030838,0.00042861,0.0,0 STARLINK-3115,1 49447U 21104AR  21340.91667824  .00042861  00000-0  30838-3 0  9995,2 49447  53.2196  17.2665 0002150  31.8935 316.1818 15.73188833  3727,6727.927,91.534,351.23900000000015,348.346,0.0
49447.0,STARLINK-3115,PAYLOAD,2021-12-07 06:00:00,15.73235806,0.000222,53.2198,15.6177,30.2645,46.7414,-0.00067988,-0.00095124,0.0,0 STARLINK-3115,1 49447U 21104AR  21341.25001157 -.00095124  00000-0 -67988-3 0  9992,2 49447  53.2198  15.6177 0002220  30.2645  46.7414 15.73235806  5002,6727.793000000002,91.531,351.152,348.165,0.0
49447.0,STARLINK-3115,PAYLOAD,2021-12-07 14:00:01,15.73161129,0.0002394,53.2194,13.9694,26.5964,139.3472,0.0004328,0.00060462,0.0,0 STARLINK-3115,1 49447U 21104AR  21341.58334491  .00060462  00000-0  43280-3 0  9992,2 49447  53.2194  13.9694 0002394  26.5964 139.3472 15.73161129  5062,6728.005999999999,91.535,351.482,348.26,0.0
49447.0,STARLINK-3115,PAYLOAD,2021-12-07 22:00:00,15.73204351,0.0002303,53.2174,12.3115,31.9604,222.7291,3.926e-06,-7.1e-07,0.0,0 STARLINK-3115,1 49447U 21104AR  21341.91667824 -.00000071  00000-0  39260-5 0  9994,2 49447  53.2174  12.3115 0002303  31.9604 222.7291 15.73204351  5119,6727.8830000000025,91.533,351.297,348.1980000000001,0.0
49447.0,STARLINK-3115,PAYLOAD,2021-12-08 06:00:02,15.73227674,0.0002274,53.2196,10.6695,31.0337,312.8017,-0.00011425,-0.00016645,0.0,0 STARLINK-3115,1 49447U 21104AR  21342.25002315 -.00016645  00000-0 -11425-3 0  9996,2 49447  53.2196  10.6695 0002274  31.0337 312.8017 15.73227674  5163,6727.816,91.532,351.211,348.151,0.0
49447.0,STARLINK-3115,PAYLOAD,2021-12-08 14:00:01,15.73210965,0.0002468,53.2194,9.0211,28.4216,44.3029,0.00034856,0.00048608,0.0,0 STARLINK-3115,1 49447U 21104AR  21342.58334491  .00048608  00000-0  34856-3 0  9990,2 49447  53.2194   9.0211 0002468  28.4216  44.3029 15.73210965  3712,6727.864000000001,91.533,351.389,348.0680000000001,0.0
49447.0,STARLINK-3115,PAYLOAD,2021-12-08 22:00:00,15.73228731,0.0002216,53.2198,7.3696,30.3583,131.3285,6.6858e-05,8.783e-05,0.0,0 STARLINK-3115,1 49447U 21104AR  21342.91667824  .00008783  00000-0  66858-4 0  9994,2 49447  53.2198   7.3696 0002216  30.3583 131.3285 15.73228731  5278,6727.813,91.532,351.1690000000001,348.18699999999984,0.0
49447.0,STARLINK-3115,PAYLOAD,2021-12-09 11:02:16,15.73218401,0.0002206,53.22,4.682,34.3521,325.7642,8.3354e-06,5.49e-06,0.0,0 STARLINK-3115,1 49447U 21104AR  21343.45991263  .00000549  00000-0  83354-5 0  9994,2 49447  53.2200   4.6820 0002206  34.3521 325.7642 15.73218401  5354,6727.843000000003,91.532,351.19199999999995,348.224,0.0
49447.0,STARLINK-3115,PAYLOAD,2021-12-09 22:00:00,15.73160237,0.0002144,53.2198,2.4212,24.7178,43.8261,0.00011295,0.00015234,0.0,0 STARLINK-3115,1 49447U 21104AR  21343.91667824  .00015234  00000-0  11295-3 0  9998,2 49447  53.2198   2.4212 0002144  24.7178  43.8261 15.73160237  3685,6728.009,91.535,351.316,348.431,0.0
